STARLINK-2354           
1 47894U 21021AL  26068.87259989  .00017403  00000+0  60374-3 0  9994
2 47894  53.1533 267.2753 0001045 112.1550 247.9561 15.29905417276216
LUR-1                   
1 60506U 24149AQ  26068.79566301  .00009121  00000+0  32985-3 0  9998
2 60506  97.3790 148.4255 0002777 309.1571  50.9421 15.28658648 86785
